0 COSMOS 2251 DEB
1 34122U 93036KT  13281.69425671  .00001602  00000-0  49102-3 0  8366
2 34122 074.0467 137.5366 0124144 068.3965 352.6877 14.38149698243938
0 COSMOS 2251 DEB
1 34122U 93036KT  13283.71362395  .00001727  00000-0  52846-3 0  8372
2 34122 074.0464 133.8181 0124182 064.1372 007.7061 14.38163893244226
0 COSMOS 2251 DEB
1 34122U 93036KT  13286.02433032  .00002181  00000-0  66501-3 0  8385
2 34122 074.0469 129.5646 0124146 059.3228 091.1424 14.38169217244568
0 COSMOS 2251 DEB
1 34122U 93036KT  13288.24460796  .00003155  00000-0  95806-3 0  8391
2 34122 074.0464 125.4756 0124199 054.6300 066.5210 14.38180317244874
0 COSMOS 2251 DEB
1 34122U 93036KT  13290.52267253  .00002570  00000-0  78179-3 0  8404
2 34122 074.0461 121.2802 0124286 049.8419 341.1635 14.38193779245208
0 COSMOS 2251 DEB
1 34122U 93036KT  13292.98093987  .00002801  00000-0  85112-3 0  8410
2 34122 074.0466 116.7527 0124332 044.6664 108.9296 14.38201715245564
0 COSMOS 2251 DEB
1 34122U 93036KT  13295.46077869  .00002944  00000-0  89366-3 0  8421
2 34122 074.0472 112.1855 0124417 039.4552 348.4533 14.38214440245910
